[{"OBJECT_NAME":"STARLINK-1681","OBJECT_ID":"2020-070AD","EPOCH":"2026-03-10T00:00:02.999808","MEAN_MOTION":15.77686848,"ECCENTRICITY":0.00086189,"INCLINATION":53.0491,"RA_OF_ASC_NODE":72.8238,"ARG_OF_PERICENTER":15.0896,"MEAN_ANOMALY":335.2211,"EPHEMERIS_TYPE":0,"CLASSIFICATION_TYPE":"U","NORAD_CAT_ID":46559,"ELEMENT_SET_NO":999,"REV_AT_EPOCH":597,"BSTAR":0.0010315887,"MEAN_MOTION_DOT":0.00179651,"MEAN_MOTION_DDOT":0},{"OBJECT_NAME":"STARLINK-36732","OBJECT_ID":"2026-032S","EPOCH":"2026-03-09T23:21:42.619680","MEAN_MOTION":15.7527266,"ECCENTRICITY":0.00013886,"INCLINATION":97.2845,"RA_OF_ASC_NODE":255.5569,"ARG_OF_PERICENTER":81.3521,"MEAN_ANOMALY":278.7902,"EPHEMERIS_TYPE":0,"CLASSIFICATION_TYPE":"U","NORAD_CAT_ID":67813,"ELEMENT_SET_NO":999,"REV_AT_EPOCH":483,"BSTAR":0.0016825815,"MEAN_MOTION_DOT":0.00259543,"MEAN_MOTION_DDOT":0}]
